GLOBALSTAR M070         
1 32264U 07048B   23241.51802167 -.00000074  00000+0  16683-3 0  9996
2 32264  51.9773 331.9582 0001073 107.0505 266.7624 12.62277058730611
GLOBALSTAR M066         
1 32265U 07048C   23242.04387819 -.00000114  00000+0 -57661-4 0  9996
2 32265  51.9661 192.4389 0000820 301.4419 137.9576 12.62262809733881
GLOBALSTAR M079         
1 37188U 10054A   23241.81148294 -.00000082  00000+0  11932-3 0  9995
2 37188  52.0067 340.9463 0000476 100.5186  51.9555 12.62267205593433
GLOBALSTAR M074         
1 37189U 10054B   23241.58926878 -.00000086  00000+0  10190-3 0  9991
2 37189  52.0040 341.0470 0000683 104.0354 358.1560 12.62269120594012
GLOBALSTAR M076         
1 37190U 10054C   23241.45170118 -.00000090  00000+0  77792-4 0  9994
2 37190  52.0052 341.5745 0000692  53.8623  24.2376 12.62260388593716
GLOBALSTAR M077         
1 37191U 10054D   23242.13981200 -.00000050  00000+0  30131-3 0  9994
2 37191  52.0070 296.1505 0000538 108.4632 276.5770 12.62260492594900
GLOBALSTAR M067 [+]     
1 32263U 07048A   23241.54911509 -.00000105  00000+0 -52676-4 0  9998
2 32263  51.9716 160.1602 0001338  27.0118 145.1682 12.40630107727857
GLOBALSTAR M068 [-]     
1 32266U 07048D   23241.51095862 -.00000081  00000+0  12828-3 0  9999
2 32266  51.9879 146.9684 0001105  95.5270  76.6796 12.62765120734460
